{
  "name": "SATGUS",
  "line1": "1 62713U 25009DJ  25284.18975696  .00006407  00000+0  56308-3 0  9998",
  "line2": "2 62713  97.7278   3.0209 0001104 207.4793 152.6370 14.96896627 40256",
  "fetched_at": "2025-10-12T00:18:29.015347+00:00"
}